ONEWEB-0703             
1 56724U 23068Q   26066.03717884  .00000088  00000+0  19971-3 0  9996
2 56724  87.8940 279.6025 0001383 126.6032 233.5226 13.15547210135829
ONEWEB-0721             
1 56725U 23068R   26066.15106759  .00000102  00000+0  20909-3 0  9993
2 56725  86.6763 118.0977 0001899 100.1910 259.9437 13.22462063144451
ONEWEB-0015             
1 61594U 24188A   26065.91920758  .00000559  00000+0  15406-2 0  9994
2 61594  87.8855  41.4294 0001473  67.0967 293.0317 13.11416939 71058
ONEWEB-0687             
1 61595U 24188B   26065.33726898  .00000046  00000+0  85162-4 0  9999
2 61595  87.9133  26.3088 0001993  65.3061 294.8278 13.17649777 72358
ONEWEB-0688             
1 61596U 24188C   26065.59376524  .00000017  00000+0  10465-4 0  9997
2 61596  87.9132  26.2574 0001290  37.0881 323.0340 13.17650246 72384
ONEWEB-0689             
1 61597U 24188D   26066.18199520 -.00000584  00000+0 -16845-2 0  9990
2 61597  87.8877  41.3168 0002081  76.8031 283.3329 13.11415108 71085
ONEWEB-0690             
1 61598U 24188E   26065.96328097 -.00000415  00000+0 -12079-2 0  9997
2 61598  87.8863  41.3809 0001675 105.9512 254.1800 13.11417824 71233
ONEWEB-0691             
1 61599U 24188F   26066.18708365 -.00000545  00000+0 -15749-2 0  9994
2 61599  87.8879  41.2365 0001627  69.8934 290.2368 13.11415559 71110
ONEWEB-0692             
1 61600U 24188G   26066.20744010  .00000096  00000+0  23458-3 0  9993
2 61600  87.8852  41.3646 0002687  88.2320 271.9116 13.11417152 71105
ONEWEB-0693             
1 61601U 24188H   26066.13712353  .00000020  00000+0  18950-4 0  9990
2 61601  87.9137  26.1703 0001328 105.6007 254.5272 13.17651032 72446
ONEWEB-0695             
1 61602U 24188J   26066.18369730 -.00000576  00000+0 -16607-2 0  9996
2 61602  87.8857  41.3602 0002332  79.6880 280.4511 13.11416561 71091
ONEWEB-0697             
1 61603U 24188K   26065.91073512  .00000546  00000+0  15049-2 0  9991
2 61603  87.8856  41.4045 0002597  90.1592 269.9834 13.11417456 71043
ONEWEB-0698             
1 61604U 24188L   26066.19386868 -.00000424  00000+0 -12309-2 0  9997
2 61604  87.8855  41.3633 0002532 109.3811 250.7591 13.11417268 71107
ONEWEB-0699             
1 61605U 24188M   26065.97283200  .00000315  00000+0  86668-3 0  9996
2 61605  87.8774  56.6159 0002435  94.1848 265.9558 13.10370473 69926
ONEWEB-0700             
1 61606U 24188N   26065.97448837  .00000171  00000+0  45257-3 0  9995
2 61606  87.8785  56.5100 0002539  84.6203 275.5214 13.10369748 69916
ONEWEB-0701             
1 61607U 24188P   26065.99107339 -.00000497  00000+0 -14598-2 0  9993
2 61607  87.8772  56.6119 0002636  94.7860 265.3568 13.10371457 69923
ONEWEB-0702             
1 61608U 24188Q   26065.93445609  .00000101  00000+0  25054-3 0  9993
2 61608  87.8871  41.3026 0002857  85.8717 274.2738 13.11416212 71087
