[{"OBJECT_NAME":"ONEWEB-0703","OBJECT_ID":"2023-068Q","EPOCH":"2026-03-07T00:53:32.251776","MEAN_MOTION":13.1554721,"ECCENTRICITY":0.0001383,"INCLINATION":87.894,"RA_OF_ASC_NODE":279.6025,"ARG_OF_PERICENTER":126.6032,"MEAN_ANOMALY":233.5226,"EPHEMERIS_TYPE":0,"CLASSIFICATION_TYPE":"U","NORAD_CAT_ID":56724,"ELEMENT_SET_NO":999,"REV_AT_EPOCH":13582,"BSTAR":0.00019971,"MEAN_MOTION_DOT":8.8e-7,"MEAN_MOTION_DDOT":0},{"OBJECT_NAME":"ONEWEB-0721","OBJECT_ID":"2023-068R","EPOCH":"2026-03-07T03:37:32.239776","MEAN_MOTION":13.22462063,"ECCENTRICITY":0.0001899,"INCLINATION":86.6763,"RA_OF_ASC_NODE":118.0977,"ARG_OF_PERICENTER":100.191,"MEAN_ANOMALY":259.9437,"EPHEMERIS_TYPE":0,"CLASSIFICATION_TYPE":"U","NORAD_CAT_ID":56725,"ELEMENT_SET_NO":999,"REV_AT_EPOCH":14445,"BSTAR":0.00020909,"MEAN_MOTION_DOT":1.02e-6,"MEAN_MOTION_DDOT":0},{"OBJECT_NAME":"ONEWEB-0015","OBJECT_ID":"2024-188A","EPOCH":"2026-03-06T22:03:39.534912","MEAN_MOTION":13.11416939,"ECCENTRICITY":0.0001473,"INCLINATION":87.8855,"RA_OF_ASC_NODE":41.4294,"ARG_OF_PERICENTER":67.0967,"MEAN_ANOMALY":293.0317,"EPHEMERIS_TYPE":0,"CLASSIFICATION_TYPE":"U","NORAD_CAT_ID":61594,"ELEMENT_SET_NO":999,"REV_AT_EPOCH":7105,"BSTAR":0.0015406,"MEAN_MOTION_DOT":5.59e-6,"MEAN_MOTION_DDOT":0},{"OBJECT_NAME":"ONEWEB-0687","OBJECT_ID":"2024-188B","EPOCH":"2026-03-06T08:05:40.039872","MEAN_MOTION":13.17649777,"ECCENTRICITY":0.00019938,"INCLINATION":87.9133,"RA_OF_ASC_NODE":26.3088,"ARG_OF_PERICENTER":65.3061,"MEAN_ANOMALY":294.8278,"EPHEMERIS_TYPE":0,"CLASSIFICATION_TYPE":"U","NORAD_CAT_ID":61595,"ELEMENT_SET_NO":999,"REV_AT_EPOCH":7235,"BSTAR":8.516158e-5,"MEAN_MOTION_DOT":4.6e-7,"MEAN_MOTION_DDOT":0},{"OBJECT_NAME":"ONEWEB-0688","OBJECT_ID":"2024-188C","EPOCH":"2026-03-06T14:15:01.316736","MEAN_MOTION":13.17650246,"ECCENTRICITY":0.00012905,"INCLINATION":87.9132,"RA_OF_ASC_NODE":26.2574,"ARG_OF_PERICENTER":37.0881,"MEAN_ANOMALY":323.034,"EPHEMERIS_TYPE":0,"CLASSIFICATION_TYPE":"U","NORAD_CAT_ID":61596,"ELEMENT_SET_NO":999,"REV_AT_EPOCH":7238,"BSTAR":1.0464851e-5,"MEAN_MOTION_DOT":1.7e-7,"MEAN_MOTION_DDOT":0},{"OBJECT_NAME":"ONEWEB-0689","OBJECT_ID":"2024-188D","EPOCH":"2026-03-07T04:22:04.385280","MEAN_MOTION":13.11415108,"ECCENTRICITY":0.0002081,"INCLINATION":87.8877,"RA_OF_ASC_NODE":41.3168,"ARG_OF_PERICENTER":76.8031,"MEAN_ANOMALY":283.3329,"EPHEMERIS_TYPE":0,"CLASSIFICATION_TYPE":"U","NORAD_CAT_ID":61597,"ELEMENT_SET_NO":999,"REV_AT_EPOCH":7108,"BSTAR":-0.0016845,"MEAN_MOTION_DOT":-5.84e-6,"MEAN_MOTION_DDOT":0},{"OBJECT_NAME":"ONEWEB-0690","OBJECT_ID":"2024-188E","EPOCH":"2026-03-06T23:07:07.475808","MEAN_MOTION":13.11417824,"ECCENTRICITY":0.0001675,"INCLINATION":87.8863,"RA_OF_ASC_NODE":41.3809,"ARG_OF_PERICENTER":105.9512,"MEAN_ANOMALY":254.18,"EPHEMERIS_TYPE":0,"CLASSIFICATION_TYPE":"U","NORAD_CAT_ID":61598,"ELEMENT_SET_NO":999,"REV_AT_EPOCH":7123,"BSTAR":-0.0012079,"MEAN_MOTION_DOT":-4.15e-6,"MEAN_MOTION_DDOT":0},{"OBJECT_NAME":"ONEWEB-0691","OBJECT_ID":"2024-188F","EPOCH":"2026-03-07T04:29:24.027360","MEAN_MOTION":13.11415559,"ECCENTRICITY":0.0001627,"INCLINATION":87.8879,"RA_OF_ASC_NODE":41.2365,"ARG_OF_PERICENTER":69.8934,"MEAN_ANOMALY":290.2368,"EPHEMERIS_TYPE":0,"CLASSIFICATION_TYPE":"U","NORAD_CAT_ID":61599,"ELEMENT_SET_NO":999,"REV_AT_EPOCH":7111,"BSTAR":-0.0015749,"MEAN_MOTION_DOT":-5.45e-6,"MEAN_MOTION_DDOT":0},{"OBJECT_NAME":"ONEWEB-0692","OBJECT_ID":"2024-188G","EPOCH":"2026-03-07T04:58:42.824640","MEAN_MOTION":13.11417152,"ECCENTRICITY":0.0002687,"INCLINATION":87.8852,"RA_OF_ASC_NODE":41.3646,"ARG_OF_PERICENTER":88.232,"MEAN_ANOMALY":271.9116,"EPHEMERIS_TYPE":0,"CLASSIFICATION_TYPE":"U","NORAD_CAT_ID":61600,"ELEMENT_SET_NO":999,"REV_AT_EPOCH":7110,"BSTAR":0.00023458,"MEAN_MOTION_DOT":9.6e-7,"MEAN_MOTION_DDOT":0},{"OBJECT_NAME":"ONEWEB-0693","OBJECT_ID":"2024-188H","EPOCH":"2026-03-07T03:17:27.472992","MEAN_MOTION":13.17651032,"ECCENTRICITY":0.0001328,"INCLINATION":87.9137,"RA_OF_ASC_NODE":26.1703,"ARG_OF_PERICENTER":105.6007,"MEAN_ANOMALY":254.5272,"EPHEMERIS_TYPE":0,"CLASSIFICATION_TYPE":"U","NORAD_CAT_ID":61601,"ELEMENT_SET_NO":999,"REV_AT_EPOCH":7244,"BSTAR":1.895e-5,"MEAN_MOTION_DOT":2.0e-7,"MEAN_MOTION_DDOT":0},{"OBJECT_NAME":"ONEWEB-0695","OBJECT_ID":"2024-188J","EPOCH":"2026-03-07T04:24:31.446720","MEAN_MOTION":13.11416561,"ECCENTRICITY":0.0002332,"INCLINATION":87.8857,"RA_OF_ASC_NODE":41.3602,"ARG_OF_PERICENTER":79.688,"MEAN_ANOMALY":280.4511,"EPHEMERIS_TYPE":0,"CLASSIFICATION_TYPE":"U","NORAD_CAT_ID":61602,"ELEMENT_SET_NO":999,"REV_AT_EPOCH":7109,"BSTAR":-0.0016607,"MEAN_MOTION_DOT":-5.76e-6,"MEAN_MOTION_DDOT":0},{"OBJECT_NAME":"ONEWEB-0697","OBJECT_ID":"2024-188K","EPOCH":"2026-03-06T21:51:27.514368","MEAN_MOTION":13.11417456,"ECCENTRICITY":0.0002597,"INCLINATION":87.8856,"RA_OF_ASC_NODE":41.4045,"ARG_OF_PERICENTER":90.1592,"MEAN_ANOMALY":269.9834,"EPHEMERIS_TYPE":0,"CLASSIFICATION_TYPE":"U","NORAD_CAT_ID":61603,"ELEMENT_SET_NO":999,"REV_AT_EPOCH":7104,"BSTAR":0.0015049,"MEAN_MOTION_DOT":5.46e-6,"MEAN_MOTION_DDOT":0},{"OBJECT_NAME":"ONEWEB-0698","OBJECT_ID":"2024-188L","EPOCH":"2026-03-07T04:39:10.253952","MEAN_MOTION":13.11417268,"ECCENTRICITY":0.0002532,"INCLINATION":87.8855,"RA_OF_ASC_NODE":41.3633,"ARG_OF_PERICENTER":109.3811,"MEAN_ANOMALY":250.7591,"EPHEMERIS_TYPE":0,"CLASSIFICATION_TYPE":"U","NORAD_CAT_ID":61604,"ELEMENT_SET_NO":999,"REV_AT_EPOCH":7110,"BSTAR":-0.0012309,"MEAN_MOTION_DOT":-4.24e-6,"MEAN_MOTION_DDOT":0},{"OBJECT_NAME":"ONEWEB-0699","OBJECT_ID":"2024-188M","EPOCH":"2026-03-06T23:20:52.684800","MEAN_MOTION":13.10370473,"ECCENTRICITY":0.0002435,"INCLINATION":87.8774,"RA_OF_ASC_NODE":56.6159,"ARG_OF_PERICENTER":94.1848,"MEAN_ANOMALY":265.9558,"EPHEMERIS_TYPE":0,"CLASSIFICATION_TYPE":"U","NORAD_CAT_ID":61605,"ELEMENT_SET_NO":999,"REV_AT_EPOCH":6992,"BSTAR":0.00086668,"MEAN_MOTION_DOT":3.15e-6,"MEAN_MOTION_DDOT":0},{"OBJECT_NAME":"ONEWEB-0700","OBJECT_ID":"2024-188N","EPOCH":"2026-03-06T23:23:15.795168","MEAN_MOTION":13.10369748,"ECCENTRICITY":0.0002539,"INCLINATION":87.8785,"RA_OF_ASC_NODE":56.51,"ARG_OF_PERICENTER":84.6203,"MEAN_ANOMALY":275.5214,"EPHEMERIS_TYPE":0,"CLASSIFICATION_TYPE":"U","NORAD_CAT_ID":61606,"ELEMENT_SET_NO":999,"REV_AT_EPOCH":6991,"BSTAR":0.00045257,"MEAN_MOTION_DOT":1.71e-6,"MEAN_MOTION_DDOT":0},{"OBJECT_NAME":"ONEWEB-0701","OBJECT_ID":"2024-188P","EPOCH":"2026-03-06T23:47:08.740896","MEAN_MOTION":13.10371457,"ECCENTRICITY":0.0002636,"INCLINATION":87.8772,"RA_OF_ASC_NODE":56.6119,"ARG_OF_PERICENTER":94.786,"MEAN_ANOMALY":265.3568,"EPHEMERIS_TYPE":0,"CLASSIFICATION_TYPE":"U","NORAD_CAT_ID":61607,"ELEMENT_SET_NO":999,"REV_AT_EPOCH":6992,"BSTAR":-0.0014598,"MEAN_MOTION_DOT":-4.97e-6,"MEAN_MOTION_DDOT":0},{"OBJECT_NAME":"ONEWEB-0702","OBJECT_ID":"2024-188Q","EPOCH":"2026-03-06T22:25:37.006176","MEAN_MOTION":13.11416212,"ECCENTRICITY":0.0002857,"INCLINATION":87.8871,"RA_OF_ASC_NODE":41.3026,"ARG_OF_PERICENTER":85.8717,"MEAN_ANOMALY":274.2738,"EPHEMERIS_TYPE":0,"CLASSIFICATION_TYPE":"U","NORAD_CAT_ID":61608,"ELEMENT_SET_NO":999,"REV_AT_EPOCH":7108,"BSTAR":0.00025054,"MEAN_MOTION_DOT":1.01e-6,"MEAN_MOTION_DDOT":0}]
